[Satellite]
VERSION=1.1
NAME=SKYSAT-2
NICKNAME=SKYSAT-2
TLE1=1 40072U 14037D   17186.23846340  .00000041  00000-0  12731-4 0  9994
TLE2=2 40072  98.3390 298.0769 0006838   3.2812 356.8456 14.80992400161652
